KUIPER-00133            
1 65764U 25217C   25302.50003471  .00024194  00000+0  91359-3 0  9996
2 65764  51.8713 279.1278 0007629 231.5305 307.4849 15.26856767  5861
KUIPER-00139            
1 65765U 25217D   25302.48656969  .00015782  00000+0  46610-3 0  9993
2 65765  51.8670 278.6418 0005880 222.7829 137.2699 15.35109648  5236
KUIPER-00142            
1 65766U 25217E   25301.22532847  .00051312  00000+0  14027-2 0  9998
2 65766  51.8707 284.4521 0002851 168.4153 191.6899 15.36871613  5043
KUIPER-00145            
1 65767U 25217F   25302.53008345  .00046469  00000+0  12801-2 0  9990
2 65767  51.8721 278.1959 0002303 192.3181 167.7749 15.36677614  5249
KUIPER-00147            
1 65768U 25217G   25302.48448954  .00043955  00000+0  12521-2 0  9995
2 65768  51.8657 278.6247 0006432 217.6065 142.4472 15.35641580  5236
KUIPER-00148            
1 65769U 25217H   25302.50072443  .00009107  00000+0  27462-3 0  9997
2 65769  51.8600 278.7144 0008879 232.0641 127.9543 15.35007524  5231
KUIPER-00150            
1 65770U 25217J   25302.50003471 -.00447363  00000+0 -16515-1 0  9991
2 65770  51.8622 278.8115 0008498 234.4624  69.8622 15.29123340  4789
KUIPER-00151            
1 65771U 25217K   25302.46907819  .00067773  00000+0  18623-2 0  9990
2 65771  51.8703 278.5336 0002774 203.4655 156.6205 15.36586454  5233
